{
    "links": {
        "self": "http://www.neowsapp.com/rest/v1/neo/3843634?api_key=iIulBulltgU6a56xZRHN4H3l9WmuAYTsLGpBGhQ2"
    },
    "id": "3843634",
    "neo_reference_id": "3843634",
    "name": "(2019 QX3)",
    "designation": "2019 QX3",
    "nasa_jpl_url": "http://ssd.jpl.nasa.gov/sbdb.cgi?sstr=3843634",
    "absolute_magnitude_h": 25.2,
    "estimated_diameter": {
        "kilometers": {
            "estimated_diameter_min": 0.0242412481,
            "estimated_diameter_max": 0.0542050786
        },
        "meters": {
            "estimated_diameter_min": 24.2412481101,
            "estimated_diameter_max": 54.2050786336
        },
        "miles": {
            "estimated_diameter_min": 0.0150628086,
            "estimated_diameter_max": 0.0336814639
        },
        "feet": {
            "estimated_diameter_min": 79.5316564495,
            "estimated_diameter_max": 177.8381901842
        }
    },
    "is_potentially_hazardous_asteroid": false,
    "close_approach_data": [
        {
            "close_approach_date": "2019-09-04",
            "close_approach_date_full": "2019-Sep-04 02:10",
            "epoch_date_close_approach": 1567563000000,
            "relative_velocity": {
                "kilometers_per_second": "17.8199620458",
                "kilometers_per_hour": "64151.8633648778",
                "miles_per_hour": "39861.4731002487"
            },
            "miss_distance": {
                "astronomical": "0.028655734",
                "lunar": "11.147080526",
                "kilometers": "4286836.76968658",
                "miles": "2663716.850491604"
            },
            "orbiting_body": "Earth"
        }
    ],
    "orbital_data": {
        "orbit_id": "1",
        "orbit_determination_date": "2019-08-28 06:12:07",
        "first_observation_date": "2019-08-24",
        "last_observation_date": "2019-08-27",
        "data_arc_in_days": 3,
        "observations_used": 13,
        "orbit_uncertainty": "9",
        "minimum_orbit_intersection": ".00303375",
        "jupiter_tisserand_invariant": "3.548",
        "epoch_osculation": "2458721.5",
        "eccentricity": ".669907871693624",
        "semi_major_axis": "1.975643845983292",
        "inclination": "1.336937381474993",
        "ascending_node_longitude": "136.2023582563664",
        "orbital_period": "1014.288288400888",
        "perihelion_distance": ".6521444818960191",
        "perihelion_argument": "286.2545574329119",
        "aphelion_distance": "3.299143210070566",
        "perihelion_time": "2458777.883708608119",
        "mean_anomaly": "339.9878049159726",
        "mean_motion": ".3549286767054865",
        "equinox": "J2000",
        "orbit_class": {
            "orbit_class_type": "APO",
            "orbit_class_description": "Near-Earth asteroid orbits which cross the Earth’s orbit similar to that of 1862 Apollo",
            "orbit_class_range": "a (semi-major axis) > 1.0 AU; q (perihelion) < 1.017 AU"
        }
    },
    "is_sentry_object": false
}